{
  "type": "FeatureCollection",
  "source": "https://tiles.openfreemap.org/planet/20261004_113936_pt/14/8852/6439.pbf",
  "features": [
    {
      "type": "Feature",
      "geometry": {
        "type": "Polygon",
        "coordinates": [
          [
            [
              14.511367678642273,
              35.898176159789685
            ],
            [
              14.51144278049469,
              35.89809794071307
            ],
            [
              14.511351585388184,
              35.89804144910971
            ],
            [
              14.511276483535767,
              35.89811966824212
            ],
            [
              14.511367678642273,
              35.898176159789685
            ]
          ]
        ]
      },
      "properties": {
        "render_height": 5,
        "render_min_height": 0
      },
      "id": "35098320-73"
    },
    {
      "type": "Feature",
      "geometry": {
        "type": "Polygon",
        "coordinates": [
          [
            [
              14.511228203773499,
              35.898176159789685
            ],
            [
              14.511142373085022,
              35.898128359252055
            ],
            [
              14.511061906814575,
              35.89821961479882
            ],
            [
              14.511142373085022,
              35.89826741528134
            ],
            [
              14.511228203773499,
              35.898176159789685
            ]
          ]
        ]
      },
      "properties": {
        "render_height": 5,
        "render_min_height": 0
      },
      "id": "35098320-74"
    },
    {
      "type": "Feature",
      "geometry": {
        "type": "Polygon",
        "coordinates": [
          [
            [
              14.511276483535767,
              35.89811966824212
            ],
            [
              14.511351585388184,
              35.89804144910971
            ],
            [
              14.511217474937439,
              35.897950193357545
            ],
            [
              14.511137008666992,
              35.898032758090224
            ],
            [
              14.511276483535767,
              35.89811966824212
            ]
          ]
        ]
      },
      "properties": {
        "render_height": 5,
        "render_min_height": 0
      },
      "id": "35098320-75"
    },
    {
      "type": "Feature",
      "geometry": {
        "type": "Polygon",
        "coordinates": [
          [
            [
              14.511056542396545,
              35.898071867670396
            ],
            [
              14.510997533798218,
              35.89803710360009
            ],
            [
              14.510911703109741,
              35.89813270475666
            ],
            [
              14.510965347290039,
              35.89816746878499
            ],
            [
              14.511056542396545,
              35.898071867670396
            ]
          ]
        ]
      },
      "properties": {
        "render_height": 5,
        "render_min_height": 0
      },
      "id": "35098320-76"
    },
    {
      "type": "Feature",
      "geometry": {
        "type": "Polygon",
        "coordinates": [
          [
            [
              14.511056542396545,
              35.89821961479882
            ],
            [
              14.511142373085022,
              35.898128359252055
            ],
            [
              14.511056542396545,
              35.898071867670396
            ],
            [
              14.510965347290039,
              35.89816746878499
            ],
            [
              14.511056542396545,
              35.89821961479882
            ]
          ]
        ]
      },
      "properties": {
        "render_height": 5,
        "render_min_height": 0
      },
      "id": "35098320-77"
    },
    {
      "type": "Feature",
      "geometry": {
        "type": "Polygon",
        "coordinates": [
          [
            [
              14.511078000068665,
              35.89862809071876
            ],
            [
              14.510852694511414,
              35.89848468983806
            ],
            [
              14.510579109191895,
              35.898775836808994
            ],
            [
              14.510809779167175,
              35.89891489170083
            ],
            [
              14.511078000068665,
              35.89862809071876
            ]
          ]
        ]
      },
      "properties": {
        "render_height": 5,
        "render_min_height": 0
      },
      "id": "35098320-79"
    },
    {
      "type": "Feature",
      "geometry": {
        "type": "Polygon",
        "coordinates": [
          [
            [
              14.510579109191895,
              35.898775836808994
            ],
            [
              14.510546922683716,
              35.89875410946007
            ],
            [
              14.510573744773865,
              35.89872369116158
            ],
            [
              14.510278701782227,
              35.8985672540132
            ],
            [
              14.51018750667572,
              35.89867589095459
            ],
            [
              14.510718584060669,
              35.89902352816509
            ],
            [
              14.510809779167175,
              35.89891489170083
            ],
            [
              14.510579109191895,
              35.898775836808994
            ]
          ]
        ]
      },
      "properties": {
        "render_height": 5,
        "render_min_height": 0
      },
      "id": "35098320-80"
    },
    {
      "type": "Feature",
      "geometry": {
        "type": "Polygon",
        "coordinates": [
          [
            [
              14.510278701782227,
              35.8985672540132
            ],
            [
              14.510573744773865,
              35.89872369116158
            ],
            [
              14.510546922683716,
              35.89875410946007
            ],
            [
              14.510579109191895,
              35.898775836808994
            ],
            [
              14.510852694511414,
              35.89848468983806
            ],
            [
              14.510799050331116,
              35.89845427143602
            ],
            [
              14.510622024536133,
              35.89864547262604
            ],
            [
              14.510359168052673,
              35.89848468983806
            ],
            [
              14.510278701782227,
              35.8985672540132
            ]
          ]
        ]
      },
      "properties": {
        "render_height": 5,
        "render_min_height": 0
      },
      "id": "35098320-81"
    },
    {
      "type": "Feature",
      "geometry": {
        "type": "Polygon",
        "coordinates": [
          [
            [
              14.510359168052673,
              35.89848468983806
            ],
            [
              14.510622024536133,
              35.89864547262604
            ],
            [
              14.510799050331116,
              35.89845427143602
            ],
            [
              14.510546922683716,
              35.89828914276386
            ],
            [
              14.510359168052673,
              35.89848468983806
            ]
          ]
        ]
      },
      "properties": {
        "render_height": 5,
        "render_min_height": 0
      },
      "id": "35098320-82"
    },
    {
      "type": "Feature",
      "geometry": {
        "type": "Polygon",
        "coordinates": [
          [
            [
              14.510589838027954,
              35.89802841258012
            ],
            [
              14.510530829429626,
              35.897989302978516
            ],
            [
              14.51042354106903,
              35.89810228621937
            ],
            [
              14.510482549667358,
              35.89814139576518
            ],
            [
              14.510589838027954,
              35.89802841258012
            ]
          ]
        ]
      },
      "properties": {
        "render_height": 5,
        "render_min_height": 0
      },
      "id": "35098320-83"
    }
  ]
}
