{
  "type": "FeatureCollection",
  "source": "https://tiles.openfreemap.org/planet/20261004_113936_pt/14/8851/6439.pbf",
  "features": [
    {
      "type": "Feature",
      "geometry": {
        "type": "Polygon",
        "coordinates": [
          [
            [
              14.498535990715027,
              35.900466206272924
            ],
            [
              14.498825669288635,
              35.900440134010324
            ],
            [
              14.498809576034546,
              35.90030108179802
            ],
            [
              14.49872374534607,
              35.90030542718334
            ],
            [
              14.49871838092804,
              35.90027500948101
            ],
            [
              14.498611092567444,
              35.900283700254306
            ],
            [
              14.498616456985474,
              35.900314117953286
            ],
            [
              14.498514533042908,
              35.900322808722294
            ],
            [
              14.498535990715027,
              35.900466206272924
            ]
          ]
        ]
      },
      "properties": {
        "render_height": 5,
        "render_min_height": 0
      },
      "id": "building-71555740-820"
    },
    {
      "type": "Feature",
      "geometry": {
        "type": "Polygon",
        "coordinates": [
          [
            [
              14.498401880264282,
              35.90022721021086
            ],
            [
              14.498305320739746,
              35.90029673641243
            ],
            [
              14.498364329338074,
              35.90035322640627
            ],
            [
              14.49846088886261,
              35.90027935486778
            ],
            [
              14.498401880264282,
              35.90022721021086
            ]
          ]
        ]
      },
      "properties": {
        "render_height": 5,
        "render_min_height": 0
      },
      "id": "building-71555740-821"
    },
    {
      "type": "Feature",
      "geometry": {
        "type": "Polygon",
        "coordinates": [
          [
            [
              14.49820339679718,
              35.90019679247847
            ],
            [
              14.498133659362793,
              35.90012292079399
            ],
            [
              14.497994184494019,
              35.90020548326035
            ],
            [
              14.498069286346436,
              35.900283700254306
            ],
            [
              14.49820339679718,
              35.90019679247847
            ]
          ]
        ]
      },
      "properties": {
        "render_height": 5,
        "render_min_height": 0
      },
      "id": "building-71555740-822"
    },
    {
      "type": "Feature",
      "geometry": {
        "type": "Polygon",
        "coordinates": [
          [
            [
              14.497881531715393,
              35.900435788632365
            ],
            [
              14.497790336608887,
              35.90034888102355
            ],
            [
              14.497666954994202,
              35.90042709787578
            ],
            [
              14.497752785682678,
              35.90051835077237
            ],
            [
              14.497881531715393,
              35.900435788632365
            ]
          ]
        ]
      },
      "properties": {
        "render_height": 5,
        "render_min_height": 0
      },
      "id": "building-71555740-823"
    },
    {
      "type": "Feature",
      "geometry": {
        "type": "Polygon",
        "coordinates": [
          [
            [
              14.498171210289001,
              35.90039233483989
            ],
            [
              14.498310685157776,
              35.90053138689187
            ],
            [
              14.498428702354431,
              35.90049662390176
            ],
            [
              14.498385787010193,
              35.90038798945932
            ],
            [
              14.498342871665955,
              35.90039668022021
            ],
            [
              14.498273134231567,
              35.90032715410642
            ],
            [
              14.498171210289001,
              35.90039233483989
            ]
          ]
        ]
      },
      "properties": {
        "render_height": 5,
        "render_min_height": 0
      },
      "id": "building-71555740-824"
    },
    {
      "type": "Feature",
      "geometry": {
        "type": "Polygon",
        "coordinates": [
          [
            [
              14.497897624969482,
              35.900574840608016
            ],
            [
              14.49794054031372,
              35.900618294300315
            ],
            [
              14.49797809123993,
              35.90059222208781
            ],
            [
              14.497994184494019,
              35.900605258195114
            ],
            [
              14.498037099838257,
              35.900579185978316
            ],
            [
              14.498042464256287,
              35.900587876718205
            ],
            [
              14.498080015182495,
              35.90056614986669
            ],
            [
              14.498096108436584,
              35.9005835313484
            ],
            [
              14.498144388198853,
              35.90056614986669
            ],
            [
              14.498058557510376,
              35.90047489702522
            ],
            [
              14.497897624969482,
              35.900574840608016
            ]
          ]
        ]
      },
      "properties": {
        "render_height": 5,
        "render_min_height": 0
      },
      "id": "building-71555740-825"
    },
    {
      "type": "Feature",
      "geometry": {
        "type": "Polygon",
        "coordinates": [
          [
            [
              14.497790336608887,
              35.90034888102355
            ],
            [
              14.497881531715393,
              35.900435788632365
            ],
            [
              14.497983455657959,
              35.900366262552936
            ],
            [
              14.497897624969482,
              35.90027935486778
            ],
            [
              14.497790336608887,
              35.90034888102355
            ]
          ]
        ]
      },
      "properties": {
        "render_height": 5,
        "render_min_height": 0
      },
      "id": "building-71555740-829"
    },
    {
      "type": "Feature",
      "geometry": {
        "type": "Polygon",
        "coordinates": [
          [
            [
              14.497634768486023,
              35.89968838007793
            ],
            [
              14.497731328010559,
              35.899792670067356
            ],
            [
              14.497790336608887,
              35.899762252167974
            ],
            [
              14.497827887535095,
              35.899762252167974
            ],
            [
              14.497849345207214,
              35.89974921592179
            ],
            [
              14.497736692428589,
              35.89962754418728
            ],
            [
              14.497634768486023,
              35.89968838007793
            ]
          ]
        ]
      },
      "properties": {
        "render_height": 5,
        "render_min_height": 0
      },
      "id": "building-71555740-848"
    },
    {
      "type": "Feature",
      "geometry": {
        "type": "Polygon",
        "coordinates": [
          [
            [
              14.497736692428589,
              35.899944759388944
            ],
            [
              14.497881531715393,
              35.90008381222724
            ],
            [
              14.498063921928406,
              35.899957795602916
            ],
            [
              14.497929811477661,
              35.899823087955056
            ],
            [
              14.497736692428589,
              35.899944759388944
            ]
          ]
        ]
      },
      "properties": {
        "render_height": 5,
        "render_min_height": 0
      },
      "id": "building-71555740-852"
    },
    {
      "type": "Feature",
      "geometry": {
        "type": "Polygon",
        "coordinates": [
          [
            [
              14.498133659362793,
              35.90012292079399
            ],
            [
              14.498074650764465,
              35.90005773983867
            ],
            [
              14.49794054031372,
              35.9001359569786
            ],
            [
              14.49796736240387,
              35.90017072012711
            ],
            [
              14.49795126914978,
              35.90017941091186
            ],
            [
              14.497983455657959,
              35.90021417404127
            ],
            [
              14.498133659362793,
              35.90012292079399
            ]
          ]
        ]
      },
      "properties": {
        "render_height": 5,
        "render_min_height": 0
      },
      "id": "building-71555740-853"
    },
    {
      "type": "Feature",
      "geometry": {
        "type": "Polygon",
        "coordinates": [
          [
            [
              14.498133659362793,
              35.90012292079399
            ],
            [
              14.49820339679718,
              35.90019679247847
            ],
            [
              14.498299956321716,
              35.90014030237302
            ],
            [
              14.49821412563324,
              35.90004470364116
            ],
            [
              14.49818730354309,
              35.90005773983867
            ],
            [
              14.498171210289001,
              35.90004035824151
            ],
            [
              14.498133659362793,
              35.90006643063582
            ],
            [
              14.498112201690674,
              35.900036012841625
            ],
            [
              14.498074650764465,
              35.90005773983867
            ],
            [
              14.498133659362793,
              35.90012292079399
            ]
          ]
        ]
      },
      "properties": {
        "render_height": 5,
        "render_min_height": 0
      },
      "id": "building-71555740-854"
    },
    {
      "type": "Feature",
      "geometry": {
        "type": "Polygon",
        "coordinates": [
          [
            [
              14.498090744018555,
              35.899757906752825
            ],
            [
              14.49819803237915,
              35.89968838007793
            ],
            [
              14.49795663356781,
              35.899445036234894
            ],
            [
              14.497849345207214,
              35.89951456312353
            ],
            [
              14.498090744018555,
              35.899757906752825
            ]
          ]
        ]
      },
      "properties": {
        "render_height": 5,
        "render_min_height": 0
      },
      "id": "building-71555740-855"
    },
    {
      "type": "Feature",
      "geometry": {
        "type": "Polygon",
        "coordinates": [
          [
            [
              14.498369693756104,
              35.90002732204114
            ],
            [
              14.498535990715027,
              35.89991434154801
            ],
            [
              14.49845016002655,
              35.89982743336661
            ],
            [
              14.49846625328064,
              35.89981874254323
            ],
            [
              14.498428702354431,
              35.899783979240155
            ],
            [
              14.498407244682312,
              35.89979701548059
            ],
            [
              14.498348236083984,
              35.89973183425688
            ],
            [
              14.498375058174133,
              35.89971445258817
            ],
            [
              14.498316049575806,
              35.89965796213845
            ],
            [
              14.498080015182495,
              35.899814397131195
            ],
            [
              14.498144388198853,
              35.899879578286914
            ],
            [
              14.49819266796112,
              35.899849160420914
            ],
            [
              14.498240947723389,
              35.899896959919374
            ],
            [
              14.49821949005127,
              35.89991434154801
            ],
            [
              14.498262405395508,
              35.89995345019851
            ],
            [
              14.498283863067627,
              35.89994041398381
            ],
            [
              14.498369693756104,
              35.90002732204114
            ]
          ]
        ]
      },
      "properties": {
        "render_height": 5,
        "render_min_height": 0
      },
      "id": "building-71555740-856"
    },
    {
      "type": "Feature",
      "geometry": {
        "type": "Polygon",
        "coordinates": [
          [
            [
              14.498772025108337,
              35.89980570630637
            ],
            [
              14.49897587299347,
              35.89964927129647
            ],
            [
              14.498761296272278,
              35.89947110882527
            ],
            [
              14.498654007911682,
              35.89955367197156
            ],
            [
              14.498745203018188,
              35.89963188960961
            ],
            [
              14.498648643493652,
              35.89970576175237
            ],
            [
              14.498772025108337,
              35.89980570630637
            ]
          ]
        ]
      },
      "properties": {
        "render_height": 5,
        "render_min_height": 0
      },
      "id": "building-71555740-859"
    },
    {
      "type": "Feature",
      "geometry": {
        "type": "Polygon",
        "coordinates": [
          [
            [
              14.498637914657593,
              35.8998926145116
            ],
            [
              14.49869692325592,
              35.89985350583105
            ],
            [
              14.498525261878967,
              35.899679689239264
            ],
            [
              14.49846625328064,
              35.89971879800571
            ],
            [
              14.498637914657593,
              35.8998926145116
            ]
          ]
        ]
      },
      "properties": {
        "render_height": 5,
        "render_min_height": 0
      },
      "id": "building-71555740-860"
    },
    {
      "type": "Feature",
      "geometry": {
        "type": "LineString",
        "coordinates": [
          [
            14.496830105781555,
            35.900101193814834
          ],
          [
            14.497141242027283,
            35.90040971635976
          ],
          [
            14.497173428535461,
            35.90042709787578
          ],
          [
            14.49720561504364,
            35.90043144325419
          ],
          [
            14.497371912002563,
            35.90040971635976
          ],
          [
            14.49746310710907,
            35.9003792986975
          ],
          [
            14.497801065444946,
            35.90013161158399
          ]
        ]
      },
      "properties": {
        "class": "minor",
        "oneway": 1
      },
      "id": "transportation-228869862"
    },
    {
      "type": "Feature",
      "geometry": {
        "type": "LineString",
        "coordinates": [
          [
            14.498004913330078,
            35.9003792986975
          ],
          [
            14.498235583305359,
            35.90065305723698
          ]
        ]
      },
      "properties": {
        "surface": "paved",
        "class": "minor",
        "oneway": 1
      },
      "id": "transportation-10290792052"
    },
    {
      "type": "Feature",
      "geometry": {
        "type": "LineString",
        "coordinates": [
          [
            14.500354528427124,
            35.89945807253115
          ],
          [
            14.499571323394775,
            35.89943199993647
          ],
          [
            14.499335289001465,
            35.89950152683656
          ],
          [
            14.499077796936035,
            35.8996623075591
          ]
        ]
      },
      "properties": {
        "name": "Triq Pietru Pawl Debono",
        "name_int": "Triq Pietru Pawl Debono",
        "class": "minor",
        "name:latin": "Triq Pietru Pawl Debono",
        "name_de": "Triq Pietru Pawl Debono",
        "name_en": "Triq Pietru Pawl Debono"
      },
      "id": "transportation_name-228869702"
    },
    {
      "type": "Feature",
      "geometry": {
        "type": "LineString",
        "coordinates": [
          [
            14.499812722206116,
            35.90022721021086
          ],
          [
            14.498782753944397,
            35.89942330906965
          ]
        ]
      },
      "properties": {
        "name": "Triq Onorato Bres",
        "name_int": "Triq Onorato Bres",
        "class": "minor",
        "name:latin": "Triq Onorato Bres",
        "name_de": "Triq Onorato Bres",
        "name_en": "Triq Onorato Bres"
      },
      "id": "transportation_name-228869712"
    },
    {
      "type": "Feature",
      "geometry": {
        "type": "LineString",
        "coordinates": [
          [
            14.496830105781555,
            35.900101193814834
          ],
          [
            14.497141242027283,
            35.90040971635976
          ],
          [
            14.497173428535461,
            35.90042709787578
          ],
          [
            14.49720561504364,
            35.90043144325419
          ],
          [
            14.497371912002563,
            35.90040971635976
          ],
          [
            14.49746310710907,
            35.9003792986975
          ],
          [
            14.497801065444946,
            35.90013161158399
          ]
        ]
      },
      "properties": {
        "name_int": "Embassy Way",
        "name:mt": "Triq l-Ambaxxati",
        "name_de": "Triq l-Ambaxxati",
        "name": "Triq l-Ambaxxati",
        "name:en": "Embassy Way",
        "class": "minor",
        "name:latin": "Triq l-Ambaxxati",
        "name_en": "Embassy Way"
      },
      "id": "transportation_name-228869862"
    },
    {
      "type": "Feature",
      "geometry": {
        "type": "LineString",
        "coordinates": [
          [
            14.498535990715027,
            35.900605258195114
          ],
          [
            14.498573541641235,
            35.90054442300921
          ],
          [
            14.498605728149414,
            35.90053138689187
          ],
          [
            14.499109983444214,
            35.900487933151865
          ],
          [
            14.499362111091614,
            35.900440134010324
          ],
          [
            14.49970543384552,
            35.90031846333791
          ],
          [
            14.499812722206116,
            35.90022721021086
          ],
          [
            14.500097036361694,
            35.90004904904056
          ],
          [
            14.500241875648499,
            35.89985350583105
          ],
          [
            14.500327706336975,
            35.89963188960961
          ],
          [
            14.500386714935303,
            35.899214727980066
          ],
          [
            14.500381350517273,
            35.89908870997208
          ],
          [
            14.500338435173035,
            35.898801909619834
          ],
          [
            14.5001882314682,
            35.898410816555696
          ],
          [
            14.500129222869873,
            35.89830217925049
          ],
          [
            14.500038027763367,
            35.898171814287466
          ],
          [
            14.499920010566711,
            35.89806752216245
          ],
          [
            14.499775171279907,
            35.8979675754137
          ],
          [
            14.499608874320984,
            35.89788935613099
          ],
          [
            14.499394297599792,
            35.89783286437874
          ],
          [
            14.49922263622284,
            35.897828518857665
          ],
          [
            14.497039318084717,
            35.89795453887194
          ],
          [
            14.496889114379883,
            35.89788066509482
          ]
        ]
      },
      "properties": {
        "name_int": "Ta' Xbiex Hill",
        "name:mt": "Ir-Rampa Ta' Xbiex",
        "name_de": "Ir-Rampa ta' Xbiex",
        "name": "Ir-Rampa ta' Xbiex",
        "name:en": "Ta' Xbiex Hill",
        "class": "minor",
        "name:latin": "Ir-Rampa ta' Xbiex",
        "name_en": "Ta' Xbiex Hill"
      },
      "id": "transportation_name-6133320160"
    },
    {
      "type": "Feature",
      "geometry": {
        "type": "LineString",
        "coordinates": [
          [
            14.499077796936035,
            35.8996623075591
          ],
          [
            14.498004913330078,
            35.9003792986975
          ],
          [
            14.497420191764832,
            35.90079645418929
          ]
        ]
      },
      "properties": {
        "name_int": "Sir Temi Zammit Avenue",
        "name:mt": "Vjal Sir Temi Zammit",
        "name_de": "Vjal Sir Temi Zammit",
        "name": "Vjal Sir Temi Zammit",
        "name:en": "Sir Temi Zammit Avenue",
        "class": "minor",
        "name:latin": "Vjal Sir Temi Zammit",
        "name_en": "Sir Temi Zammit Avenue"
      },
      "id": "transportation_name-6133320620"
    }
  ]
}
