{
  "type": "FeatureCollection",
  "source": "https://tiles.openfreemap.org/planet/20261004_113936_pt/14/8852/6439.pbf",
  "features": [
    {
      "type": "Feature",
      "geometry": {
        "type": "Polygon",
        "coordinates": [
          [
            [
              14.510879516601562,
              35.89754171393939
            ],
            [
              14.51095998287201,
              35.89745914869452
            ],
            [
              14.510906338691711,
              35.89742438435515
            ],
            [
              14.510825872421265,
              35.897506949636266
            ],
            [
              14.510879516601562,
              35.89754171393939
            ]
          ]
        ]
      },
      "properties": {
        "render_height": 5,
        "render_min_height": 0
      },
      "id": "35098320-278"
    },
    {
      "type": "Feature",
      "geometry": {
        "type": "Polygon",
        "coordinates": [
          [
            [
              14.51095998287201,
              35.89745914869452
            ],
            [
              14.510879516601562,
              35.89754171393939
            ],
            [
              14.510825872421265,
              35.897506949636266
            ],
            [
              14.510729312896729,
              35.89760689696661
            ],
            [
              14.511056542396545,
              35.89781548229301
            ],
            [
              14.511115550994873,
              35.89775464496293
            ],
            [
              14.511249661445618,
              35.89783720989959
            ],
            [
              14.51144814491272,
              35.89762862463043
            ],
            [
              14.511405229568481,
              35.89760255143314
            ],
            [
              14.511324763298035,
              35.89768946205737
            ],
            [
              14.51095998287201,
              35.89745914869452
            ]
          ]
        ]
      },
      "properties": {
        "render_height": 5,
        "render_min_height": 0
      },
      "id": "35098320-279"
    },
    {
      "type": "Feature",
      "geometry": {
        "type": "Polygon",
        "coordinates": [
          [
            [
              14.510906338691711,
              35.89742438435515
            ],
            [
              14.511324763298035,
              35.89768946205737
            ],
            [
              14.511405229568481,
              35.89760255143314
            ],
            [
              14.510986804962158,
              35.897337473439876
            ],
            [
              14.510906338691711,
              35.89742438435515
            ]
          ]
        ]
      },
      "properties": {
        "render_height": 5,
        "render_min_height": 0
      },
      "id": "35098320-280"
    },
    {
      "type": "Feature",
      "geometry": {
        "type": "Polygon",
        "coordinates": [
          [
            [
              14.510900974273682,
              35.897280981293775
            ],
            [
              14.510815143585205,
              35.897224489107344
            ],
            [
              14.510546922683716,
              35.897506949636266
            ],
            [
              14.510627388954163,
              35.89756778715673
            ],
            [
              14.510900974273682,
              35.897280981293775
            ]
          ]
        ]
      },
      "properties": {
        "render_height": 5,
        "render_min_height": 0
      },
      "id": "35098320-281"
    },
    {
      "type": "Feature",
      "geometry": {
        "type": "Polygon",
        "coordinates": [
          [
            [
              14.510664939880371,
              35.89700286552517
            ],
            [
              14.51069712638855,
              35.897024593354786
            ],
            [
              14.51069176197052,
              35.89702893891997
            ],
            [
              14.510756134986877,
              35.897059357869765
            ],
            [
              14.510900974273682,
              35.89689857186005
            ],
            [
              14.510820508003235,
              35.89685077055094
            ],
            [
              14.510664939880371,
              35.89700286552517
            ]
          ]
        ]
      },
      "properties": {
        "render_height": 5,
        "render_min_height": 0
      },
      "id": "35098320-294"
    },
    {
      "type": "Feature",
      "geometry": {
        "type": "Polygon",
        "coordinates": [
          [
            [
              14.510756134986877,
              35.897059357869765
            ],
            [
              14.510799050331116,
              35.89708543124597
            ],
            [
              14.510852694511414,
              35.89702893891997
            ],
            [
              14.510858058929443,
              35.89703328448495
            ],
            [
              14.51095461845398,
              35.896928990859905
            ],
            [
              14.510900974273682,
              35.89689857186005
            ],
            [
              14.510756134986877,
              35.897059357869765
            ]
          ]
        ]
      },
      "properties": {
        "render_height": 5,
        "render_min_height": 0
      },
      "id": "35098320-295"
    },
    {
      "type": "Feature",
      "geometry": {
        "type": "Polygon",
        "coordinates": [
          [
            [
              14.510799050331116,
              35.89708543124597
            ],
            [
              14.510852694511414,
              35.8971201957342
            ],
            [
              14.511002898216248,
              35.89695506427904
            ],
            [
              14.51095461845398,
              35.896928990859905
            ],
            [
              14.510858058929443,
              35.89703328448495
            ],
            [
              14.510852694511414,
              35.89702893891997
            ],
            [
              14.510799050331116,
              35.89708543124597
            ]
          ]
        ]
      },
      "properties": {
        "render_height": 5,
        "render_min_height": 0
      },
      "id": "35098320-296"
    },
    {
      "type": "Feature",
      "geometry": {
        "type": "Polygon",
        "coordinates": [
          [
            [
              14.510852694511414,
              35.8971201957342
            ],
            [
              14.510976076126099,
              35.89720710688805
            ],
            [
              14.511137008666992,
              35.89704197561417
            ],
            [
              14.511045813560486,
              35.89698113768959
            ],
            [
              14.511029720306396,
              35.89699417439168
            ],
            [
              14.510992169380188,
              35.89697244655372
            ],
            [
              14.510852694511414,
              35.8971201957342
            ]
          ]
        ]
      },
      "properties": {
        "render_height": 5,
        "render_min_height": 0
      },
      "id": "35098320-297"
    },
    {
      "type": "Feature",
      "geometry": {
        "type": "Polygon",
        "coordinates": [
          [
            [
              14.510557651519775,
              35.89730705459699
            ],
            [
              14.51070249080658,
              35.89715930576524
            ],
            [
              14.510632753372192,
              35.8971201957342
            ],
            [
              14.510493278503418,
              35.897267944638955
            ],
            [
              14.510557651519775,
              35.89730705459699
            ]
          ]
        ]
      },
      "properties": {
        "render_height": 5,
        "render_min_height": 0
      },
      "id": "35098320-298"
    },
    {
      "type": "Feature",
      "geometry": {
        "type": "Polygon",
        "coordinates": [
          [
            [
              14.511035084724426,
              35.89724187132286
            ],
            [
              14.51121211051941,
              35.89734616453569
            ],
            [
              14.511351585388184,
              35.89721579799817
            ],
            [
              14.51169490814209,
              35.89742438435515
            ],
            [
              14.511566162109375,
              35.8975634416211
            ],
            [
              14.511882662773132,
              35.89775899048806
            ],
            [
              14.512124061584473,
              35.89749825855809
            ],
            [
              14.51192557811737,
              35.89737658336357
            ],
            [
              14.512006044387817,
              35.897285326844894
            ],
            [
              14.511727094650269,
              35.89711585017402
            ],
            [
              14.511555433273315,
              35.89730270904704
            ],
            [
              14.51142132282257,
              35.897224489107344
            ],
            [
              14.5114266872406,
              35.89721579799817
            ],
            [
              14.511346220970154,
              35.897163651323055
            ],
            [
              14.511512517929077,
              35.89698548325718
            ],
            [
              14.511362314224243,
              35.89688988071508
            ],
            [
              14.511035084724426,
              35.89724187132286
            ]
          ]
        ]
      },
      "properties": {
        "render_height": 15,
        "render_min_height": 0
      },
      "id": "57602520-5"
    }
  ]
}
