{
  "type": "FeatureCollection",
  "source": "https://tiles.openfreemap.org/planet/20261004_113936_pt/14/8844/6432.pbf",
  "sources": [
    "https://tiles.openfreemap.org/planet/20261004_113936_pt/14/8844/6432.pbf"
  ],
  "fetched_at": "2026-10-09T09:15:15.923Z",
  "attribution": "Map data © OpenStreetMap contributors, ODbL: https://www.openstreetmap.org/copyright",
  "description": "OpenFreeMap vector-tile features intersecting a query box extending 160 m from the centre in each direction. Complete intersecting features are retained. Tile/component IDs are not OSM way IDs.",
  "church_id": "0246",
  "context_center": [
    14.3358194,
    36.0150728
  ],
  "context_bbox": [
    14.334042462426135,
    36.01363550212001,
    14.337596337573865,
    36.01651009787999
  ],
  "features": [
    {
      "type": "Feature",
      "id": "building:1361985780-21",
      "geometry": {
        "type": "Polygon",
        "coordinates": [
          [
            [
              14.335741996765137,
              36.01504890265237
            ],
            [
              14.335747361183167,
              36.015122666927255
            ],
            [
              14.335886836051941,
              36.015113988780854
            ],
            [
              14.335876107215881,
              36.0150055118702
            ],
            [
              14.335822463035583,
              36.0150055118702
            ],
            [
              14.335827827453613,
              36.01504456357523
            ],
            [
              14.335741996765137,
              36.01504890265237
            ]
          ]
        ]
      },
      "properties": {
        "render_height": 5,
        "render_min_height": 0,
        "source_layer": "building",
        "source_tile": "https://tiles.openfreemap.org/planet/20261004_113936_pt/14/8844/6432.pbf"
      }
    },
    {
      "type": "Feature",
      "id": "building:1361985780-22",
      "geometry": {
        "type": "Polygon",
        "coordinates": [
          [
            [
              14.33565080165863,
              36.01461933285641
            ],
            [
              14.335709810256958,
              36.01465404565414
            ],
            [
              14.335741996765137,
              36.01461065465459
            ],
            [
              14.33567762374878,
              36.01458028094068
            ],
            [
              14.33565080165863,
              36.01461933285641
            ]
          ]
        ]
      },
      "properties": {
        "render_height": 5,
        "render_min_height": 0,
        "source_layer": "building",
        "source_tile": "https://tiles.openfreemap.org/planet/20261004_113936_pt/14/8844/6432.pbf"
      }
    },
    {
      "type": "Feature",
      "id": "building:1361985780-23",
      "geometry": {
        "type": "Polygon",
        "coordinates": [
          [
            [
              14.33617115020752,
              36.014393699298495
            ],
            [
              14.336240887641907,
              36.01449349883647
            ],
            [
              14.336289167404175,
              36.01447180329549
            ],
            [
              14.336219429969788,
              36.01437200373003
            ],
            [
              14.33617115020752,
              36.014393699298495
            ]
          ]
        ]
      },
      "properties": {
        "render_height": 5,
        "render_min_height": 0,
        "source_layer": "building",
        "source_tile": "https://tiles.openfreemap.org/planet/20261004_113936_pt/14/8844/6432.pbf"
      }
    },
    {
      "type": "Feature",
      "id": "building:1361985780-24",
      "geometry": {
        "type": "Polygon",
        "coordinates": [
          [
            [
              14.336364269256592,
              36.01468875843658
            ],
            [
              14.33641254901886,
              36.014719132108695
            ],
            [
              14.336466193199158,
              36.01467140204727
            ],
            [
              14.33641254901886,
              36.01463668925717
            ],
            [
              14.336364269256592,
              36.01468875843658
            ]
          ]
        ]
      },
      "properties": {
        "render_height": 5,
        "render_min_height": 0,
        "source_layer": "building",
        "source_tile": "https://tiles.openfreemap.org/planet/20261004_113936_pt/14/8844/6432.pbf"
      }
    },
    {
      "type": "Feature",
      "id": "building:1361985780-25",
      "geometry": {
        "type": "Polygon",
        "coordinates": [
          [
            [
              14.336010217666626,
              36.01484930485654
            ],
            [
              14.336063861846924,
              36.01484930485654
            ],
            [
              14.336063861846924,
              36.01478421850949
            ],
            [
              14.336010217666626,
              36.01478421850949
            ],
            [
              14.336010217666626,
              36.01484930485654
            ]
          ]
        ]
      },
      "properties": {
        "render_height": 5,
        "render_min_height": 0,
        "source_layer": "building",
        "source_tile": "https://tiles.openfreemap.org/planet/20261004_113936_pt/14/8844/6432.pbf"
      }
    },
    {
      "type": "Feature",
      "id": "building:1361985780-26",
      "geometry": {
        "type": "Polygon",
        "coordinates": [
          [
            [
              14.336042404174805,
              36.01487533938031
            ],
            [
              14.336047768592834,
              36.01491873023417
            ],
            [
              14.3361496925354,
              36.014910052065304
            ],
            [
              14.33614432811737,
              36.01486666120668
            ],
            [
              14.336042404174805,
              36.01487533938031
            ]
          ]
        ]
      },
      "properties": {
        "render_height": 5,
        "render_min_height": 0,
        "source_layer": "building",
        "source_tile": "https://tiles.openfreemap.org/planet/20261004_113936_pt/14/8844/6432.pbf"
      }
    },
    {
      "type": "Feature",
      "id": "building:1361985780-27",
      "geometry": {
        "type": "Polygon",
        "coordinates": [
          [
            [
              14.33616578578949,
              36.0149664601458
            ],
            [
              14.336219429969788,
              36.01497513830846
            ],
            [
              14.336230158805847,
              36.014914391149844
            ],
            [
              14.33617651462555,
              36.01490571298052
            ],
            [
              14.33616578578949,
              36.0149664601458
            ]
          ]
        ]
      },
      "properties": {
        "render_height": 5,
        "render_min_height": 0,
        "source_layer": "building",
        "source_tile": "https://tiles.openfreemap.org/planet/20261004_113936_pt/14/8844/6432.pbf"
      }
    },
    {
      "type": "Feature",
      "id": "building:1361985780-28",
      "geometry": {
        "type": "Polygon",
        "coordinates": [
          [
            [
              14.336256980895996,
              36.014988155550625
            ],
            [
              14.33641791343689,
              36.0150055118702
            ],
            [
              14.33642327785492,
              36.01497947738942
            ],
            [
              14.336380362510681,
              36.01497513830846
            ],
            [
              14.336385726928711,
              36.01492740840206
            ],
            [
              14.336332082748413,
              36.01492306931823
            ],
            [
              14.336321353912354,
              36.01496212106413
            ],
            [
              14.336262345314026,
              36.01495344290004
            ],
            [
              14.336256980895996,
              36.014988155550625
            ]
          ]
        ]
      },
      "properties": {
        "render_height": 5,
        "render_min_height": 0,
        "source_layer": "building",
        "source_tile": "https://tiles.openfreemap.org/planet/20261004_113936_pt/14/8844/6432.pbf"
      }
    },
    {
      "type": "Feature",
      "id": "building:1361985780-29",
      "geometry": {
        "type": "Polygon",
        "coordinates": [
          [
            [
              14.336267709732056,
              36.01662397187363
            ],
            [
              14.336337447166443,
              36.01660661591049
            ],
            [
              14.336262345314026,
              36.016441734069886
            ],
            [
              14.336187243461609,
              36.01646342906861
            ],
            [
              14.336267709732056,
              36.01662397187363
            ]
          ]
        ]
      },
      "properties": {
        "render_height": 5,
        "render_min_height": 0,
        "source_layer": "building",
        "source_tile": "https://tiles.openfreemap.org/planet/20261004_113936_pt/14/8844/6432.pbf"
      }
    },
    {
      "type": "Feature",
      "id": "building:1361985780-30",
      "geometry": {
        "type": "Polygon",
        "coordinates": [
          [
            [
              14.335978031158447,
              36.01646776806764
            ],
            [
              14.336128234863281,
              36.016454751069844
            ],
            [
              14.336101412773132,
              36.01628986891154
            ],
            [
              14.336053133010864,
              36.01629420792011
            ],
            [
              14.336058497428894,
              36.01634627600451
            ],
            [
              14.335961937904358,
              36.01635495401523
            ],
            [
              14.335978031158447,
              36.01646776806764
            ]
          ]
        ]
      },
      "properties": {
        "render_height": 5,
        "render_min_height": 0,
        "source_layer": "building",
        "source_tile": "https://tiles.openfreemap.org/planet/20261004_113936_pt/14/8844/6432.pbf"
      }
    },
    {
      "type": "Feature",
      "id": "building:1361985780-31",
      "geometry": {
        "type": "Polygon",
        "coordinates": [
          [
            [
              14.336069226264954,
              36.016276851884356
            ],
            [
              14.336112141609192,
              36.016268173865015
            ],
            [
              14.336106777191162,
              36.016242139801335
            ],
            [
              14.336063861846924,
              36.01625081782353
            ],
            [
              14.336069226264954,
              36.016276851884356
            ]
          ]
        ]
      },
      "properties": {
        "render_height": 5,
        "render_min_height": 0,
        "source_layer": "building",
        "source_tile": "https://tiles.openfreemap.org/planet/20261004_113936_pt/14/8844/6432.pbf"
      }
    },
    {
      "type": "Feature",
      "id": "transportation:274480682-0",
      "geometry": {
        "type": "LineString",
        "coordinates": [
          [
            14.336026310920715,
            36.015942747450765
          ],
          [
            14.336181879043579,
            36.016476446064985
          ],
          [
            14.336197972297668,
            36.01661963288319
          ],
          [
            14.336197972297668,
            36.016749802492214
          ],
          [
            14.336187243461609,
            36.01687129393329
          ],
          [
            14.33616042137146,
            36.016927700610125
          ],
          [
            14.336096048355103,
            36.016992785187114
          ],
          [
            14.335983395576477,
            36.01707088660851
          ],
          [
            14.335860013961792,
            36.017127293142494
          ],
          [
            14.335790276527405,
            36.01713163210499
          ],
          [
            14.335682988166809,
            36.01710559832651
          ],
          [
            14.335489869117737,
            36.01703183590746
          ],
          [
            14.335468411445618,
            36.0170405138427
          ],
          [
            14.335457682609558,
            36.0170578697103
          ],
          [
            14.33542549610138,
            36.017535154571576
          ],
          [
            14.33542549610138,
            36.017912641460214
          ],
          [
            14.33541476726532,
            36.017938674972086
          ],
          [
            14.335382580757141,
            36.017956030641884
          ],
          [
            14.335114359855652,
            36.01799941979968
          ],
          [
            14.334808588027954,
            36.01802979219593
          ]
        ]
      },
      "properties": {
        "access": "no",
        "surface": "unpaved",
        "class": "service",
        "service": "driveway",
        "source_layer": "transportation",
        "source_tile": "https://tiles.openfreemap.org/planet/20261004_113936_pt/14/8844/6432.pbf"
      }
    },
    {
      "type": "Feature",
      "id": "transportation:1355081180-0",
      "geometry": {
        "type": "MultiLineString",
        "coordinates": [
          [
            [
              14.32765781879425,
              36.0186762875682
            ],
            [
              14.32742714881897,
              36.0185157489439
            ],
            [
              14.32741641998291,
              36.01844198784468
            ],
            [
              14.32742714881897,
              36.01842897117295
            ]
          ],
          [
            [
              14.327716827392578,
              36.01895831408929
            ],
            [
              14.327775835990906,
              36.01893228091424
            ]
          ],
          [
            [
              14.328022599220276,
              36.019418232097124
            ],
            [
              14.328140616416931,
              36.019344471842615
            ]
          ],
          [
            [
              14.325828552246094,
              36.01681922619575
            ],
            [
              14.325876832008362,
              36.01678885333297
            ],
            [
              14.325978755950928,
              36.01675414147546
            ],
            [
              14.326021671295166,
              36.01671942960266
            ],
            [
              14.326048493385315,
              36.016663022776754
            ],
            [
              14.326069951057434,
              36.01658492095116
            ],
            [
              14.32616651058197,
              36.01645909006936
            ],
            [
              14.326295256614685,
              36.016203088689664
            ],
            [
              14.326359629631042,
              36.016029527959276
            ],
            [
              14.32643473148346,
              36.01576918614707
            ],
            [
              14.326477646827698,
              36.01568240535187
            ],
            [
              14.326531291007996,
              36.01562165873841
            ],
            [
              14.326504468917847,
              36.015565251126816
            ],
            [
              14.326617121696472,
              36.01523982181017
            ],
            [
              14.326729774475098,
              36.01504022449785
            ]
          ],
          [
            [
              14.330720901489258,
              36.01653285302443
            ],
            [
              14.33067798614502,
              36.01666736176479
            ],
            [
              14.33066725730896,
              36.01684959904685
            ],
            [
              14.33068335056305,
              36.017083903504556
            ]
          ],
          [
            [
              14.338708519935608,
              36.018446326734775
            ],
            [
              14.3386709690094,
              36.01837690446453
            ],
            [
              14.33864414691925,
              36.01830314323537
            ],
            [
              14.338633418083191,
              36.01817297619198
            ],
            [
              14.338611960411072,
              36.018116570406406
            ],
            [
              14.338579773902893,
              36.01806884240247
            ],
            [
              14.338531494140625,
              36.01802545328289
            ],
            [
              14.338467121124268,
              36.017929997135724
            ],
            [
              14.338461756706238,
              36.01786925225463
            ],
            [
              14.33842420578003,
              36.01781284625166
            ],
            [
              14.338354468345642,
              36.01774776235193
            ],
            [
              14.338322281837463,
              36.01770437305558
            ],
            [
              14.338300824165344,
              36.01766098373534
            ],
            [
              14.338257908821106,
              36.01743969783057
            ],
            [
              14.338236451148987,
              36.01737027467357
            ],
            [
              14.3381667137146,
              36.01722708921913
            ],
            [
              14.338102340698242,
              36.01712295417978
            ],
            [
              14.338102340698242,
              36.017044852809974
            ],
            [
              14.338086247444153,
              36.016992785187114
            ],
            [
              14.338054060935974,
              36.01693203958361
            ],
            [
              14.338048696517944,
              36.016884310862295
            ],
            [
              14.338080883026123,
              36.01675848045849
            ],
            [
              14.338107705116272,
              36.01669773467441
            ],
            [
              14.338182806968689,
              36.016823565175216
            ],
            [
              14.338268637657166,
              36.0170405138427
            ],
            [
              14.338290095329285,
              36.0172010554722
            ],
            [
              14.338349103927612,
              36.017331224120895
            ],
            [
              14.338359832763672,
              36.01737461362268
            ],
            [
              14.338359832763672,
              36.017431019939295
            ],
            [
              14.338445663452148,
              36.01764362800057
            ],
            [
              14.338488578796387,
              36.017721728777005
            ],
            [
              14.338611960411072,
              36.01785623548828
            ],
            [
              14.338842630386353,
              36.01806450349157
            ],
            [
              14.338933825492859,
              36.018125248222205
            ],
            [
              14.339266419410706,
              36.01829880433738
            ],
            [
              14.33939516544342,
              36.01842897117295
            ],
            [
              14.339475631713867,
              36.01848103784697
            ],
            [
              14.339545369148254,
              36.01850273228435
            ],
            [
              14.33963656425476,
              36.01851141005761
            ],
            [
              14.339743852615356,
              36.01851141005761
            ],
            [
              14.339840412139893,
              36.0185287656013
            ],
            [
              14.340001344680786,
              36.0185287656013
            ]
          ]
        ]
      },
      "properties": {
        "subclass": "path",
        "surface": "unpaved",
        "class": "path",
        "source_layer": "transportation",
        "source_tile": "https://tiles.openfreemap.org/planet/20261004_113936_pt/14/8844/6432.pbf"
      }
    },
    {
      "type": "Feature",
      "id": "transportation:1370894570-0",
      "geometry": {
        "type": "MultiLineString",
        "coordinates": [
          [
            [
              14.328049421310425,
              36.01651549704121
            ],
            [
              14.327432513237,
              36.01619441066224
            ],
            [
              14.327121376991272,
              36.01599047674226
            ],
            [
              14.326745867729187,
              36.01569976151856
            ],
            [
              14.32668149471283,
              36.01565637109471
            ],
            [
              14.326504468917847,
              36.015565251126816
            ]
          ],
          [
            [
              14.327201843261719,
              36.01481893123463
            ],
            [
              14.327116012573242,
              36.01476252304853
            ],
            [
              14.327051639556885,
              36.014706114822076
            ],
            [
              14.32691216468811,
              36.01448482062078
            ],
            [
              14.326751232147217,
              36.014172404220034
            ],
            [
              14.326719045639038,
              36.0140682651446
            ],
            [
              14.326724410057068,
              36.014007517287084
            ],
            [
              14.326767325401306,
              36.0139728042046
            ],
            [
              14.327073097229004,
              36.01389903885358
            ],
            [
              14.327250123023987,
              36.01391205627347
            ],
            [
              14.327309131622314,
              36.01389903885358
            ],
            [
              14.327352046966553,
              36.01388168229035
            ],
            [
              14.327389597892761,
              36.01384696915248
            ],
            [
              14.32742178440094,
              36.01374282964706
            ],
            [
              14.327604174613953,
              36.01369509899443
            ],
            [
              14.327700734138489,
              36.013660385774386
            ],
            [
              14.327808022499084,
              36.013599637602496
            ],
            [
              14.328044056892395,
              36.013625672539035
            ],
            [
              14.328237175941467,
              36.01361265507184
            ],
            [
              14.328365921974182,
              36.01372547304946
            ]
          ],
          [
            [
              14.326729774475098,
              36.01504022449785
            ],
            [
              14.326761960983276,
              36.01501419002852
            ],
            [
              14.326788783073425,
              36.01497079922724
            ],
            [
              14.326896071434021,
              36.01485364394445
            ],
            [
              14.326971173286438,
              36.014575941837734
            ]
          ],
          [
            [
              14.32615578174591,
              36.01399449988294
            ],
            [
              14.326209425926208,
              36.01403355208889
            ],
            [
              14.326284527778625,
              36.0140595868821
            ],
            [
              14.326751232147217,
              36.014172404220034
            ],
            [
              14.326606392860413,
              36.01418976071923
            ],
            [
              14.326461553573608,
              36.014246169315214
            ],
            [
              14.326370358467102,
              36.01425484755718
            ],
            [
              14.326268434524536,
              36.01425484755718
            ],
            [
              14.32619333267212,
              36.014233151950506
            ],
            [
              14.326123595237732,
              36.01418108247012
            ],
            [
              14.326075315475464,
              36.01412901295534
            ]
          ],
          [
            [
              14.328639507293701,
              36.01456292452747
            ],
            [
              14.32867705821991,
              36.0146149937556
            ],
            [
              14.328730702400208,
              36.014632350157356
            ],
            [
              14.328880906105042,
              36.01462801105727
            ],
            [
              14.32916522026062,
              36.014588959145854
            ],
            [
              14.329267144203186,
              36.01454556811045
            ],
            [
              14.329369068145752,
              36.01446312507741
            ],
            [
              14.32943880558014,
              36.01444576863841
            ],
            [
              14.329589009284973,
              36.01444142952806
            ],
            [
              14.32968556880951,
              36.01439803841147
            ],
            [
              14.329766035079956,
              36.014393699298495
            ],
            [
              14.32991623878479,
              36.01444142952806
            ],
            [
              14.330028891563416,
              36.01449783794395
            ],
            [
              14.330082535743713,
              36.014575941837734
            ],
            [
              14.330098628997803,
              36.01467574114497
            ],
            [
              14.330071806907654,
              36.014797235783206
            ],
            [
              14.329948425292969,
              36.01506191988237
            ],
            [
              14.329943060874939,
              36.015183413925314
            ],
            [
              14.329969882965088,
              36.015304907781
            ],
            [
              14.329969882965088,
              36.015400367107645
            ],
            [
              14.329841136932373,
              36.0156910834357
            ],
            [
              14.329841136932373,
              36.015764847109565
            ],
            [
              14.329867959022522,
              36.01589501813034
            ],
            [
              14.329851865768433,
              36.01594708647845
            ],
            [
              14.329867959022522,
              36.01606857915695
            ],
            [
              14.329846501350403,
              36.01617705460447
            ],
            [
              14.329819679260254,
              36.016233461778185
            ]
          ],
          [
            [
              14.330028891563416,
              36.01449783794395
            ],
            [
              14.330077171325684,
              36.01444576863841
            ],
            [
              14.33016300201416,
              36.0143286125752
            ],
            [
              14.330238103866577,
              36.01426352579817
            ],
            [
              14.330286383628845,
              36.01414636946407
            ],
            [
              14.330372214317322,
              36.01385130829556
            ],
            [
              14.330479502677917,
              36.013677742386335
            ],
            [
              14.330581426620483,
              36.013439088637085
            ],
            [
              14.33064579963684,
              36.01338267946352
            ],
            [
              14.330801367759705,
              36.01334362693507
            ],
            [
              14.330887198448181,
              36.01330023521412
            ],
            [
              14.33089792728424,
              36.01328287851905
            ]
          ],
          [
            [
              14.329851865768433,
              36.01594708647845
            ],
            [
              14.329792857170105,
              36.015999154792155
            ],
            [
              14.329567551612854,
              36.016055562093214
            ],
            [
              14.329503178596497,
              36.01596878161335
            ],
            [
              14.329470992088318,
              36.01588200103792
            ],
            [
              14.329310059547424,
              36.01581257650882
            ],
            [
              14.329208135604858,
              36.01583861071441
            ],
            [
              14.329138398170471,
              36.0158212545783
            ],
            [
              14.329031109809875,
              36.015777864221334
            ],
            [
              14.32892918586731,
              36.01571711768142
            ],
            [
              14.328875541687012,
              36.01572145672155
            ],
            [
              14.328564405441284,
              36.01590369619076
            ]
          ],
          [
            [
              14.329867959022522,
              36.01589501813034
            ],
            [
              14.329991340637207,
              36.01586898394339
            ],
            [
              14.330055713653564,
              36.01586898394339
            ],
            [
              14.330087900161743,
              36.01589067909978
            ],
            [
              14.330136179924011,
              36.01596444258685
            ],
            [
              14.330264925956726,
              36.01608593523858
            ],
            [
              14.330388307571411,
              36.01625081782353
            ],
            [
              14.330559968948364,
              36.016420039065196
            ],
            [
              14.330720901489258,
              36.01653285302443
            ],
            [
              14.331026673316956,
              36.01635061500998
            ],
            [
              14.331085681915283,
              36.01634627600451
            ],
            [
              14.33115541934967,
              36.01637664903785
            ],
            [
              14.331235885620117,
              36.016506819048175
            ],
            [
              14.331359267234802,
              36.01657624296577
            ],
            [
              14.33140218257904,
              36.01662397187363
            ],
            [
              14.331445097923279,
              36.01669773467441
            ],
            [
              14.331509470939636,
              36.016888649838165
            ],
            [
              14.331493377685547,
              36.0170578697103
            ],
            [
              14.331498742103577,
              36.01711427625362
            ]
          ],
          [
            [
              14.333344101905823,
              36.01714464899099
            ],
            [
              14.333322644233704,
              36.017413664153864
            ],
            [
              14.333333373069763,
              36.01750478198471
            ],
            [
              14.333365559577942,
              36.017556849269326
            ],
            [
              14.333467483520508,
              36.01762193332672
            ],
            [
              14.333558678627014,
              36.01763928906627
            ],
            [
              14.33365523815155,
              36.017634950131736
            ],
            [
              14.333783984184265,
              36.01761325545549
            ],
            [
              14.333864450454712,
              36.01757420502321
            ],
            [
              14.333944916725159,
              36.017556849269326
            ],
            [
              14.334207773208618,
              36.017543832451395
            ],
            [
              14.334282875061035,
              36.017556849269326
            ],
            [
              14.334363341331482,
              36.01758722183614
            ],
            [
              14.334540367126465,
              36.01772606770675
            ],
            [
              14.33464229106903,
              36.0177607791362
            ],
            [
              14.334722757339478,
              36.01776511806378
            ],
            [
              14.334813952445984,
              36.01781284625166
            ]
          ],
          [
            [
              14.335607886314392,
              36.01516171857425
            ],
            [
              14.3356454372406,
              36.0150705980345
            ],
            [
              14.335629343986511,
              36.01477987941779
            ],
            [
              14.33567762374878,
              36.01474082758159
            ],
            [
              14.335731267929077,
              36.01472347120375
            ],
            [
              14.335870742797852,
              36.01469743662983
            ],
            [
              14.336015582084656,
              36.01464536745614
            ],
            [
              14.33613896369934,
              36.014588959145854
            ],
            [
              14.336240887641907,
              36.01451085526496
            ],
            [
              14.336315989494324,
              36.01448482062078
            ],
            [
              14.336519837379456,
              36.01422447370615
            ],
            [
              14.336562752723694,
              36.01413335208288
            ],
            [
              14.336578845977783,
              36.01407260427551
            ],
            [
              14.336573481559753,
              36.014037891221705
            ]
          ],
          [
            [
              14.33441698551178,
              36.01462367195697
            ],
            [
              14.33439552783966,
              36.01472781029858
            ],
            [
              14.334529638290405,
              36.01502286818592
            ],
            [
              14.334771037101746,
              36.01549148726615
            ],
            [
              14.334862232208252,
              36.01570410055963
            ],
            [
              14.334856867790222,
              36.01581257650882
            ],
            [
              14.334830045700073,
              36.01589501813034
            ],
            [
              14.334331154823303,
              36.01631590295946
            ],
            [
              14.334239959716797,
              36.016476446064985
            ],
            [
              14.333789348602295,
              36.016862615979434
            ],
            [
              14.333344101905823,
              36.01714464899099
            ],
            [
              14.333075881004333,
              36.017235767132874
            ],
            [
              14.33264672756195,
              36.01732254621767
            ],
            [
              14.332367777824402,
              36.01732254621767
            ],
            [
              14.332276582717896,
              36.017296512502256
            ],
            [
              14.332233667373657,
              36.01726613982342
            ],
            [
              14.33218002319336,
              36.01708824246941
            ],
            [
              14.33214783668518,
              36.0170405138427
            ],
            [
              14.332088828086853,
              36.016992785187114
            ],
            [
              14.331981539726257,
              36.01693203958361
            ],
            [
              14.331600666046143,
              36.0165892599435
            ],
            [
              14.331530928611755,
              36.01654153101461
            ],
            [
              14.331482648849487,
              36.01653285302443
            ],
            [
              14.331359267234802,
              36.01657624296577
            ]
          ],
          [
            [
              14.334626197814941,
              36.01448482062078
            ],
            [
              14.334481358528137,
              36.014558585423586
            ],
            [
              14.33441698551178,
              36.01462367195697
            ],
            [
              14.334347248077393,
              36.0146800802424
            ],
            [
              14.334207773208618,
              36.01470177572608
            ],
            [
              14.334025382995605,
              36.01477554032583
            ],
            [
              14.33390736579895,
              36.01490571298052
            ],
            [
              14.333810806274414,
              36.01493174748565
            ],
            [
              14.333633780479431,
              36.01492306931823
            ],
            [
              14.333338737487793,
              36.014836287591436
            ],
            [
              14.333322644233704,
              36.01494042565213
            ],
            [
              14.333322644233704,
              36.0151096497073
            ],
            [
              14.333199262619019,
              36.01549148726615
            ],
            [
              14.333134889602661,
              36.01562165873841
            ],
            [
              14.333108067512512,
              36.01572145672155
            ],
            [
              14.3331778049469,
              36.01578654229462
            ],
            [
              14.333269000053406,
              36.01584294974782
            ],
            [
              14.333279728889465,
              36.016003493816754
            ],
            [
              14.333226084709167,
              36.01616403755865
            ],
            [
              14.333252906799316,
              36.01621176671617
            ],
            [
              14.33314561843872,
              36.01631156395209
            ],
            [
              14.332990050315857,
              36.0164070220595
            ],
            [
              14.332850575447083,
              36.016398344054494
            ],
            [
              14.332727193832397,
              36.01635495401523
            ],
            [
              14.33268427848816,
              36.01630288593657
            ],
            [
              14.332721829414368,
              36.016190071648154
            ],
            [
              14.332721829414368,
              36.01607725719823
            ],
            [
              14.332700371742249,
              36.015977459665635
            ],
            [
              14.332732558250427,
              36.01587766200666
            ],
            [
              14.332748651504517,
              36.015730134801046
            ],
            [
              14.33266282081604,
              36.015647693007054
            ],
            [
              14.332582354545593,
              36.015630336828906
            ],
            [
              14.332566261291504,
              36.015565251126816
            ],
            [
              14.332630634307861,
              36.01544375767247
            ],
            [
              14.332582354545593,
              36.01520077020187
            ],
            [
              14.332582354545593,
              36.015122666927255
            ],
            [
              14.332641363143921,
              36.01503154634237
            ],
            [
              14.332866668701172,
              36.01483194850259
            ],
            [
              14.332957863807678,
              36.01468875843658
            ],
            [
              14.333038330078125,
              36.014649706555275
            ],
            [
              14.333328008651733,
              36.014363325500966
            ],
            [
              14.333446025848389,
              36.01418976071923
            ],
            [
              14.333531856536865,
              36.01408562166674
            ],
            [
              14.333623051643372,
              36.01400317815259
            ],
            [
              14.333623051643372,
              36.01394676938273
            ],
            [
              14.333569407463074,
              36.01387734314896
            ],
            [
              14.333494305610657,
              36.01386866486544
            ],
            [
              14.333456754684448,
              36.01382527343354
            ],
            [
              14.333440661430359,
              36.01376886453633
            ]
          ],
          [
            [
              14.334830045700073,
              36.01589501813034
            ],
            [
              14.334878325462341,
              36.01599481576733
            ],
            [
              14.33492124080658,
              36.01612064739038
            ],
            [
              14.334974884986877,
              36.01619441066224
            ],
            [
              14.335130453109741,
              36.016276851884356
            ],
            [
              14.335216283798218,
              36.0163723100338
            ],
            [
              14.335253834724426,
              36.0164504120701
            ],
            [
              14.335253834724426,
              36.016537192019655
            ],
            [
              14.335227012634277,
              36.01673678554097
            ],
            [
              14.335125088691711,
              36.016940717529835
            ],
            [
              14.335108995437622,
              36.0172314281761
            ],
            [
              14.335135817527771,
              36.017413664153864
            ],
            [
              14.335098266601562,
              36.01757854396109
            ],
            [
              14.335039258003235,
              36.01769569519345
            ],
            [
              14.335017800331116,
              36.017721728777005
            ],
            [
              14.334813952445984,
              36.01781284625166
            ],
            [
              14.334486722946167,
              36.01799941979968
            ],
            [
              14.33439016342163,
              36.018077520223514
            ]
          ],
          [
            [
              14.335017800331116,
              36.017721728777005
            ],
            [
              14.335114359855652,
              36.01799941979968
            ]
          ],
          [
            [
              14.336235523223877,
              36.01328287851905
            ],
            [
              14.336214065551758,
              36.0133132527329
            ],
            [
              14.336079955101013,
              36.013426071139065
            ],
            [
              14.335956573486328,
              36.01349983693272
            ],
            [
              14.335817098617554,
              36.013491158607636
            ],
            [
              14.335232377052307,
              36.013321931077584
            ],
            [
              14.33516800403595,
              36.01328287851905
            ]
          ],
          [
            [
              14.336079955101013,
              36.013426071139065
            ],
            [
              14.33615505695343,
              36.013486819444736
            ],
            [
              14.336262345314026,
              36.01347814111821
            ],
            [
              14.336358904838562,
              36.013434749471344
            ],
            [
              14.33642327785492,
              36.01328287851905
            ]
          ],
          [
            [
              14.328612685203552,
              36.01328287851905
            ],
            [
              14.328607320785522,
              36.0133132527329
            ],
            [
              14.328521490097046,
              36.01352153274124
            ],
            [
              14.328365921974182,
              36.01372547304946
            ],
            [
              14.328360557556152,
              36.0137732036837
            ],
            [
              14.328457117080688,
              36.01383829086561
            ],
            [
              14.328580498695374,
              36.01394676938273
            ],
            [
              14.328950643539429,
              36.01400317815259
            ],
            [
              14.32917594909668,
              36.01390771713376
            ],
            [
              14.329283237457275,
              36.01390771713376
            ],
            [
              14.329336881637573,
              36.01395544765761
            ]
          ]
        ]
      },
      "properties": {
        "surface": "unpaved",
        "class": "track",
        "source_layer": "transportation",
        "source_tile": "https://tiles.openfreemap.org/planet/20261004_113936_pt/14/8844/6432.pbf"
      }
    },
    {
      "type": "Feature",
      "id": "transportation:1372541220-0",
      "geometry": {
        "type": "MultiLineString",
        "coordinates": [
          [
            [
              14.332872033119202,
              36.03143589259359
            ],
            [
              14.33265745639801,
              36.03132309997052
            ],
            [
              14.332308769226074,
              36.03127537996599
            ],
            [
              14.332115650177002,
              36.03078516370009
            ],
            [
              14.33190643787384,
              36.0308328840016
            ],
            [
              14.33168113231659,
              36.030594282204916
            ],
            [
              14.331117868423462,
              36.03056391465171
            ],
            [
              14.330833554267883,
              36.030481488376765
            ],
            [
              14.330817461013794,
              36.03033832674687
            ],
            [
              14.330747723579407,
              36.03023420903443
            ],
            [
              14.330500960350037,
              36.03011273819601
            ],
            [
              14.330066442489624,
              36.03002163494426
            ],
            [
              14.329803586006165,
              36.02994354635889
            ],
            [
              14.32943344116211,
              36.02977435415839
            ],
            [
              14.329277873039246,
              36.02963119124338
            ],
            [
              14.329202771186829,
              36.02933184976213
            ],
            [
              14.329116940498352,
              36.02918434774432
            ],
            [
              14.328950643539429,
              36.029075890202094
            ],
            [
              14.328559041023254,
              36.029162656247834
            ],
            [
              14.328258633613586,
              36.02928846684439
            ],
            [
              14.327995777130127,
              36.02938390923185
            ],
            [
              14.327893853187561,
              36.029284128551296
            ],
            [
              14.32740032672882,
              36.02867242683409
            ],
            [
              14.327271580696106,
              36.028481540219474
            ],
            [
              14.327024817466736,
              36.02834271330015
            ],
            [
              14.326584935188293,
              36.02828197644601
            ],
            [
              14.326010942459106,
              36.02825160800137
            ],
            [
              14.325828552246094,
              36.02829932983768
            ]
          ],
          [
            [
              14.325828552246094,
              36.01740498625972
            ],
            [
              14.325898289680481,
              36.017409325206884
            ],
            [
              14.326102137565613,
              36.01750044304278
            ],
            [
              14.32642936706543,
              36.01771305091678
            ],
            [
              14.326483011245728,
              36.01776945699116
            ],
            [
              14.326552748680115,
              36.01781284625166
            ],
            [
              14.326729774475098,
              36.01799074197004
            ],
            [
              14.326799511909485,
              36.01802979219593
            ],
            [
              14.326976537704468,
              36.01824673754295
            ],
            [
              14.327132105827332,
              36.01838124335822
            ],
            [
              14.327362775802612,
              36.018507071171086
            ],
            [
              14.32742714881897,
              36.0185157489439
            ]
          ],
          [
            [
              14.325962662696838,
              36.01411599557126
            ],
            [
              14.325860738754272,
              36.01418108247012
            ],
            [
              14.325828552246094,
              36.01418108247012
            ]
          ],
          [
            [
              14.325828552246094,
              36.0139033779938
            ],
            [
              14.325962662696838,
              36.01411599557126
            ],
            [
              14.326214790344238,
              36.01458028094068
            ]
          ],
          [
            [
              14.329277873039246,
              36.016124986408286
            ],
            [
              14.329267144203186,
              36.01623780078988
            ],
            [
              14.32918667793274,
              36.01631156395209
            ],
            [
              14.329202771186829,
              36.01637664903785
            ],
            [
              14.329272508621216,
              36.01645909006936
            ],
            [
              14.329283237457275,
              36.016571903972704
            ],
            [
              14.329272508621216,
              36.0165892599435
            ],
            [
              14.329277873039246,
              36.01660227691909
            ]
          ],
          [
            [
              14.329084753990173,
              36.016454751069844
            ],
            [
              14.329031109809875,
              36.016498141054186
            ],
            [
              14.328886270523071,
              36.016498141054186
            ],
            [
              14.328848719596863,
              36.016498141054186
            ]
          ],
          [
            [
              14.329256415367126,
              36.01669773467441
            ],
            [
              14.329229593276978,
              36.01665868378848
            ],
            [
              14.329224228858948,
              36.016632649853776
            ]
          ],
          [
            [
              14.329202771186829,
              36.01678451435163
            ],
            [
              14.32918667793274,
              36.016741124524955
            ],
            [
              14.329138398170471,
              36.016663022776754
            ],
            [
              14.329133033752441,
              36.016593598935614
            ],
            [
              14.329095482826233,
              36.01647210706645
            ],
            [
              14.329057931900024,
              36.016398344054494
            ],
            [
              14.329031109809875,
              36.01638098804166
            ],
            [
              14.328886270523071,
              36.016498141054186
            ]
          ],
          [
            [
              14.335543513298035,
              36.017049191777005
            ],
            [
              14.335538148880005,
              36.01696675136277
            ],
            [
              14.335548877716064,
              36.01684092109059
            ],
            [
              14.335618615150452,
              36.01668905670144
            ],
            [
              14.3356454372406,
              36.016441734069886
            ],
            [
              14.335516691207886,
              36.015912374250206
            ]
          ],
          [
            [
              14.336112141609192,
              36.0175958997102
            ],
            [
              14.336273074150085,
              36.01746139255458
            ],
            [
              14.336187243461609,
              36.01687129393329
            ]
          ],
          [
            [
              14.338107705116272,
              36.01669773467441
            ],
            [
              14.338123798370361,
              36.01662831086382
            ],
            [
              14.338113069534302,
              36.016571903972704
            ],
            [
              14.338086247444153,
              36.01652851402899
            ],
            [
              14.33789849281311,
              36.016441734069886
            ],
            [
              14.337769746780396,
              36.0163723100338
            ]
          ]
        ]
      },
      "properties": {
        "subclass": "path",
        "class": "path",
        "source_layer": "transportation",
        "source_tile": "https://tiles.openfreemap.org/planet/20261004_113936_pt/14/8844/6432.pbf"
      }
    },
    {
      "type": "Feature",
      "id": "transportation:1477080472-0",
      "geometry": {
        "type": "LineString",
        "coordinates": [
          [
            14.338064789772034,
            36.01328287851905
          ],
          [
            14.337957501411438,
            36.01339135780054
          ],
          [
            14.337780475616455,
            36.013530211063
          ],
          [
            14.337485432624817,
            36.013886021431546
          ],
          [
            14.33742642402649,
            36.0139728042046
          ],
          [
            14.337378144264221,
            36.0140682651446
          ],
          [
            14.337308406829834,
            36.01428956051545
          ],
          [
            14.337270855903625,
            36.01447180329549
          ],
          [
            14.337254762649536,
            36.01468875843658
          ],
          [
            14.337270855903625,
            36.014797235783206
          ],
          [
            14.3374103307724,
            36.01528321246336
          ],
          [
            14.337490797042847,
            36.015452435782535
          ],
          [
            14.337571263313293,
            36.015552233979946
          ],
          [
            14.337598085403442,
            36.015647693007054
          ],
          [
            14.337581992149353,
            36.01571711768142
          ],
          [
            14.337522983551025,
            36.01579522036698
          ],
          [
            14.337431788444519,
            36.015855966846686
          ],
          [
            14.337270855903625,
            36.01601217186523
          ]
        ]
      },
      "properties": {
        "surface": "unpaved",
        "class": "track",
        "foot": "yes",
        "source_layer": "transportation",
        "source_tile": "https://tiles.openfreemap.org/planet/20261004_113936_pt/14/8844/6432.pbf"
      }
    },
    {
      "type": "Feature",
      "id": "transportation:2185538740-0",
      "geometry": {
        "type": "MultiLineString",
        "coordinates": [
          [
            [
              14.326815605163574,
              36.028893681195015
            ],
            [
              14.326965808868408,
              36.02876786996795
            ],
            [
              14.327040910720825,
              36.028681103487415
            ],
            [
              14.327116012573242,
              36.0285466152537
            ]
          ],
          [
            [
              14.326601028442383,
              36.029075890202094
            ],
            [
              14.32640790939331,
              36.02899346237014
            ],
            [
              14.326252341270447,
              36.02884595971875
            ]
          ],
          [
            [
              14.337683916091919,
              36.01650248005127
            ],
            [
              14.337721467018127,
              36.01645909006936
            ],
            [
              14.337769746780396,
              36.0163723100338
            ]
          ]
        ]
      },
      "properties": {
        "class": "service",
        "source_layer": "transportation",
        "source_tile": "https://tiles.openfreemap.org/planet/20261004_113936_pt/14/8844/6432.pbf"
      }
    },
    {
      "type": "Feature",
      "id": "transportation:3130132092-0",
      "geometry": {
        "type": "LineString",
        "coordinates": [
          [
            14.334808588027954,
            36.01802979219593
          ],
          [
            14.334615468978882,
            36.01806450349157
          ],
          [
            14.33439016342163,
            36.018077520223514
          ],
          [
            14.333832263946533,
            36.01821202632756
          ],
          [
            14.333590865135193,
            36.01823372083899
          ],
          [
            14.333344101905823,
            36.018229381937175
          ],
          [
            14.333209991455078,
            36.01827277094448
          ],
          [
            14.333049058914185,
            36.01825541534443
          ],
          [
            14.332743287086487,
            36.018164298381436
          ],
          [
            14.332314133644104,
            36.018181654001566
          ],
          [
            14.332239031791687,
            36.018164298381436
          ],
          [
            14.331815242767334,
            36.01798206413943
          ],
          [
            14.331713318824768,
            36.01792131929845
          ],
          [
            14.331627488136292,
            36.01783454087297
          ],
          [
            14.331552386283875,
            36.01773474556555
          ],
          [
            14.33142900466919,
            36.01770437305558
          ],
          [
            14.331380724906921,
            36.017700034124644
          ],
          [
            14.331241250038147,
            36.01760023864689
          ],
          [
            14.331037402153015,
            36.017409325206884
          ],
          [
            14.330855011940002,
            36.01730085145542
          ],
          [
            14.330790638923645,
            36.017205394430604
          ],
          [
            14.33068335056305,
            36.017083903504556
          ],
          [
            14.330511689186096,
            36.01684092109059
          ],
          [
            14.33042585849762,
            36.01676715842382
          ],
          [
            14.33017909526825,
            36.016593598935614
          ],
          [
            14.329819679260254,
            36.016233461778185
          ],
          [
            14.329567551612854,
            36.016055562093214
          ]
        ]
      },
      "properties": {
        "subclass": "footway",
        "surface": "paved",
        "class": "path",
        "foot": "designated",
        "source_layer": "transportation",
        "source_tile": "https://tiles.openfreemap.org/planet/20261004_113936_pt/14/8844/6432.pbf"
      }
    },
    {
      "type": "Feature",
      "id": "transportation:5830085370-0",
      "geometry": {
        "type": "MultiLineString",
        "coordinates": [
          [
            [
              14.328725337982178,
              36.017096920398444
            ],
            [
              14.32868242263794,
              36.017096920398444
            ]
          ],
          [
            [
              14.329068660736084,
              36.01651549704121
            ],
            [
              14.329041838645935,
              36.016506819048175
            ],
            [
              14.329041838645935,
              36.01654153101461
            ]
          ],
          [
            [
              14.335495233535767,
              36.01828144874305
            ],
            [
              14.335543513298035,
              36.01821202632756
            ],
            [
              14.335452318191528,
              36.018203348521325
            ]
          ]
        ]
      },
      "properties": {
        "subclass": "steps",
        "class": "path",
        "source_layer": "transportation",
        "source_tile": "https://tiles.openfreemap.org/planet/20261004_113936_pt/14/8844/6432.pbf"
      }
    },
    {
      "type": "Feature",
      "id": "transportation:5830085380-0",
      "geometry": {
        "type": "MultiLineString",
        "coordinates": [
          [
            [
              14.328784346580505,
              36.01708824246941
            ],
            [
              14.328725337982178,
              36.017096920398444
            ]
          ],
          [
            [
              14.329031109809875,
              36.016498141054186
            ],
            [
              14.329068660736084,
              36.016506819048175
            ]
          ],
          [
            [
              14.329095482826233,
              36.01648946305923
            ],
            [
              14.329068660736084,
              36.016506819048175
            ],
            [
              14.329068660736084,
              36.01651549704121
            ]
          ],
          [
            [
              14.33615505695343,
              36.01602084991272
            ],
            [
              14.336326718330383,
              36.01651115804481
            ],
            [
              14.336337447166443,
              36.01660227691909
            ],
            [
              14.336273074150085,
              36.01669773467441
            ],
            [
              14.336273074150085,
              36.016923361636444
            ],
            [
              14.336240887641907,
              36.01707956453944
            ],
            [
              14.336224794387817,
              36.017096920398444
            ]
          ],
          [
            [
              14.336273074150085,
              36.01746139255458
            ],
            [
              14.336294531822205,
              36.01756552714674
            ],
            [
              14.336278438568115,
              36.01773040663626
            ],
            [
              14.336262345314026,
              36.01783454087297
            ],
            [
              14.336214065551758,
              36.017912641460214
            ],
            [
              14.336085319519043,
              36.01801677545612
            ],
            [
              14.335795640945435,
              36.018207687424564
            ],
            [
              14.335758090019226,
              36.018320498824906
            ],
            [
              14.335613250732422,
              36.018333515514556
            ],
            [
              14.335505962371826,
              36.01830314323537
            ],
            [
              14.335495233535767,
              36.01828144874305
            ]
          ],
          [
            [
              14.335452318191528,
              36.018203348521325
            ],
            [
              14.335307478904724,
              36.01822070413286
            ],
            [
              14.335087537765503,
              36.01829012654072
            ],
            [
              14.334846138954163,
              36.018294465439155
            ],
            [
              14.334728121757507,
              36.01825975424478
            ],
            [
              14.33464765548706,
              36.018185992905984
            ],
            [
              14.334620833396912,
              36.018125248222205
            ],
            [
              14.334615468978882,
              36.01806450349157
            ]
          ]
        ]
      },
      "properties": {
        "subclass": "footway",
        "class": "path",
        "source_layer": "transportation",
        "source_tile": "https://tiles.openfreemap.org/planet/20261004_113936_pt/14/8844/6432.pbf"
      }
    },
    {
      "type": "Feature",
      "id": "transportation:11786137840-0",
      "geometry": {
        "type": "LineString",
        "coordinates": [
          [
            14.336026310920715,
            36.015942747450765
          ],
          [
            14.33615505695343,
            36.01602084991272
          ],
          [
            14.336342811584473,
            36.015977459665635
          ],
          [
            14.336578845977783,
            36.01589501813034
          ],
          [
            14.33664321899414,
            36.01589501813034
          ],
          [
            14.3369060754776,
            36.01596444258685
          ],
          [
            14.33713674545288,
            36.015999154792155
          ],
          [
            14.337270855903625,
            36.01601217186523
          ],
          [
            14.337501525878906,
            36.0160902742584
          ],
          [
            14.3376624584198,
            36.01619874967608
          ],
          [
            14.337742924690247,
            36.016298546928454
          ],
          [
            14.337769746780396,
            36.0163723100338
          ]
        ]
      },
      "properties": {
        "surface": "unpaved",
        "class": "service",
        "source_layer": "transportation",
        "source_tile": "https://tiles.openfreemap.org/planet/20261004_113936_pt/14/8844/6432.pbf"
      }
    },
    {
      "type": "Feature",
      "id": "transportation:235897460-0",
      "geometry": {
        "type": "MultiLineString",
        "coordinates": [
          [
            [
              14.326461553573608,
              36.02920170093722
            ],
            [
              14.326037764549255,
              36.029505381194156
            ],
            [
              14.325828552246094,
              36.02960949986992
            ]
          ],
          [
            [
              14.328730702400208,
              36.01621610572904
            ],
            [
              14.328837990760803,
              36.016307224944455
            ],
            [
              14.328870177268982,
              36.016363632025005
            ],
            [
              14.328870177268982,
              36.01642871706778
            ],
            [
              14.328848719596863,
              36.016498141054186
            ]
          ],
          [
            [
              14.327448606491089,
              36.01468875843658
            ],
            [
              14.327443242073059,
              36.01494476473499
            ],
            [
              14.327201843261719,
              36.01481893123463
            ]
          ],
          [
            [
              14.33339238166809,
              36.01328287851905
            ],
            [
              14.333478212356567,
              36.0133523052764
            ],
            [
              14.333875179290771,
              36.01362133338354
            ],
            [
              14.333987832069397,
              36.01371245559875
            ],
            [
              14.334223866462708,
              36.01398148247665
            ],
            [
              14.334626197814941,
              36.01448482062078
            ],
            [
              14.334867596626282,
              36.014805913964494
            ],
            [
              14.33493196964264,
              36.01485798303209
            ],
            [
              14.335023164749146,
              36.014910052065304
            ],
            [
              14.335334300994873,
              36.01503588542023
            ],
            [
              14.335607886314392,
              36.01516171857425
            ],
            [
              14.335795640945435,
              36.01521812647462
            ],
            [
              14.336026310920715,
              36.015942747450765
            ]
          ],
          [
            [
              14.330570697784424,
              36.01328287851905
            ],
            [
              14.329336881637573,
              36.01395544765761
            ],
            [
              14.329245686531067,
              36.01412467382755
            ],
            [
              14.329090118408203,
              36.014380681958144
            ],
            [
              14.329020380973816,
              36.01444142952806
            ],
            [
              14.32892382144928,
              36.01448915972874
            ],
            [
              14.328800439834595,
              36.0145412290056
            ],
            [
              14.328639507293701,
              36.01456292452747
            ],
            [
              14.32792067527771,
              36.01452821168962
            ],
            [
              14.327791929244995,
              36.0145412290056
            ],
            [
              14.327625632286072,
              36.014588959145854
            ],
            [
              14.327448606491089,
              36.01468875843658
            ],
            [
              14.327201843261719,
              36.01481893123463
            ],
            [
              14.326847791671753,
              36.0150055118702
            ],
            [
              14.326643943786621,
              36.01506191988237
            ],
            [
              14.325828552246094,
              36.015122666927255
            ]
          ]
        ]
      },
      "properties": {
        "surface": "unpaved",
        "class": "minor",
        "source_layer": "transportation",
        "source_tile": "https://tiles.openfreemap.org/planet/20261004_113936_pt/14/8844/6432.pbf"
      }
    },
    {
      "type": "Feature",
      "id": "transportation_name:3153583812-0",
      "geometry": {
        "type": "LineString",
        "coordinates": [
          [
            14.333081245422363,
            36.01300517087812
          ],
          [
            14.333140254020691,
            36.01306591950819
          ],
          [
            14.333478212356567,
            36.0133523052764
          ],
          [
            14.333735704421997,
            36.01352153274124
          ],
          [
            14.333987832069397,
            36.01371245559875
          ],
          [
            14.334223866462708,
            36.01398148247665
          ],
          [
            14.334626197814941,
            36.01448482062078
          ],
          [
            14.334867596626282,
            36.014805913964494
          ],
          [
            14.33493196964264,
            36.01485798303209
          ],
          [
            14.335023164749146,
            36.014910052065304
          ],
          [
            14.335334300994873,
            36.01503588542023
          ],
          [
            14.335607886314392,
            36.01516171857425
          ],
          [
            14.335795640945435,
            36.01521812647462
          ],
          [
            14.336026310920715,
            36.015942747450765
          ]
        ]
      },
      "properties": {
        "name_int": "Triq il-Gvernatur Walter Congrève",
        "route_1_name": "Comino Walk",
        "name_de": "Triq il-Gvernatur Walter Congrève",
        "name": "Triq il-Gvernatur Walter Congrève",
        "route_1_network": "lwn",
        "class": "minor",
        "name:latin": "Triq il-Gvernatur Walter Congrève",
        "name_en": "Triq il-Gvernatur Walter Congrève",
        "source_layer": "transportation_name",
        "source_tile": "https://tiles.openfreemap.org/planet/20261004_113936_pt/14/8844/6432.pbf"
      }
    },
    {
      "type": "Feature",
      "id": "poi:1361993732-0",
      "geometry": {
        "type": "Point",
        "coordinates": [
          14.335811734199524,
          36.01508361526092
        ]
      },
      "properties": {
        "name_int": "Chapel of Our Lady's Return from Egypt",
        "name:mt": "Kappella tal-Ħarba mill-Eġittu",
        "name_de": "Kappella tal-Ħarba mill-Eġittu",
        "name": "Kappella tal-Ħarba mill-Eġittu",
        "subclass": "christian",
        "name:pl": "Comino Chapel",
        "rank": 2,
        "name:en": "Chapel of Our Lady's Return from Egypt",
        "class": "place_of_worship",
        "name:latin": "Kappella tal-Ħarba mill-Eġittu",
        "name_en": "Chapel of Our Lady's Return from Egypt",
        "source_layer": "poi",
        "source_tile": "https://tiles.openfreemap.org/planet/20261004_113936_pt/14/8844/6432.pbf"
      }
    },
    {
      "type": "Feature",
      "id": "poi:5021788782-0",
      "geometry": {
        "type": "Point",
        "coordinates": [
          14.335382580757141,
          36.015942747450765
        ]
      },
      "properties": {
        "subclass": "tennis",
        "class": "pitch",
        "rank": 5,
        "source_layer": "poi",
        "source_tile": "https://tiles.openfreemap.org/planet/20261004_113936_pt/14/8844/6432.pbf"
      }
    },
    {
      "type": "Feature",
      "id": "poi:5021788792-0",
      "geometry": {
        "type": "Point",
        "coordinates": [
          14.335452318191528,
          36.016268173865015
        ]
      },
      "properties": {
        "subclass": "tennis",
        "class": "pitch",
        "rank": 6,
        "source_layer": "poi",
        "source_tile": "https://tiles.openfreemap.org/planet/20261004_113936_pt/14/8844/6432.pbf"
      }
    },
    {
      "type": "Feature",
      "id": "poi:27693640941-0",
      "geometry": {
        "type": "Point",
        "coordinates": [
          14.334771037101746,
          36.01549148726615
        ]
      },
      "properties": {
        "subclass": "gate",
        "class": "gate",
        "rank": 7,
        "source_layer": "poi",
        "source_tile": "https://tiles.openfreemap.org/planet/20261004_113936_pt/14/8844/6432.pbf"
      }
    },
    {
      "type": "Feature",
      "id": "poi:50733923161-0",
      "geometry": {
        "type": "Point",
        "coordinates": [
          14.336085319519043,
          36.01631590295946
        ]
      },
      "properties": {
        "subclass": "toilets",
        "class": "toilets",
        "rank": 8,
        "source_layer": "poi",
        "source_tile": "https://tiles.openfreemap.org/planet/20261004_113936_pt/14/8844/6432.pbf"
      }
    },
    {
      "type": "Feature",
      "id": "landuse:5021788782-0",
      "geometry": {
        "type": "Polygon",
        "coordinates": [
          [
            [
              14.335307478904724,
              36.01612064739038
            ],
            [
              14.335527420043945,
              36.0160902742584
            ],
            [
              14.335452318191528,
              36.015764847109565
            ],
            [
              14.335237741470337,
              36.01579522036698
            ],
            [
              14.335307478904724,
              36.01612064739038
            ]
          ]
        ]
      },
      "properties": {
        "class": "pitch",
        "source_layer": "landuse",
        "source_tile": "https://tiles.openfreemap.org/planet/20261004_113936_pt/14/8844/6432.pbf"
      }
    },
    {
      "type": "Feature",
      "id": "landuse:5021788792-0",
      "geometry": {
        "type": "Polygon",
        "coordinates": [
          [
            [
              14.335382580757141,
              36.016441734069886
            ],
            [
              14.335597157478333,
              36.01641136106164
            ],
            [
              14.335527420043945,
              36.0160902742584
            ],
            [
              14.335307478904724,
              36.01612064739038
            ],
            [
              14.335382580757141,
              36.016441734069886
            ]
          ]
        ]
      },
      "properties": {
        "class": "pitch",
        "source_layer": "landuse",
        "source_tile": "https://tiles.openfreemap.org/planet/20261004_113936_pt/14/8844/6432.pbf"
      }
    }
  ]
}
